[{"OBJECT_NAME":"GAOFEN-9 05","OBJECT_ID":"2020-058A","EPOCH":"2026-03-10T00:01:50.876256","MEAN_MOTION":15.30293976,"ECCENTRICITY":0.0010522,"INCLINATION":97.2228,"RA_OF_ASC_NODE":111.963,"ARG_OF_PERICENTER":91.0204,"MEAN_ANOMALY":269.2242,"EPHEMERIS_TYPE":0,"CLASSIFICATION_TYPE":"U","NORAD_CAT_ID":46232,"ELEMENT_SET_NO":999,"REV_AT_EPOCH":30843,"BSTAR":0.00025120304,"MEAN_MOTION_DOT":7.299e-5,"MEAN_MOTION_DDOT":0},{"OBJECT_NAME":"STARLINK-30907","OBJECT_ID":"2023-177B","EPOCH":"2026-03-09T22:00:01.999584","MEAN_MOTION":15.27570349,"ECCENTRICITY":0.00017529,"INCLINATION":43.0009,"RA_OF_ASC_NODE":349.075,"ARG_OF_PERICENTER":268.5333,"MEAN_ANOMALY":138.6096,"EPHEMERIS_TYPE":0,"CLASSIFICATION_TYPE":"U","NORAD_CAT_ID":58352,"ELEMENT_SET_NO":999,"REV_AT_EPOCH":573,"BSTAR":-0.00038850833,"MEAN_MOTION_DOT":-0.00010935,"MEAN_MOTION_DDOT":0}]
